0 FENGYUN 1C DEB
1 32216U 99025CVN 13281.37817710  .00001900  00000-0  82658-3 0  2779
2 32216 099.5590 136.0337 0059969 201.9209 157.9704 14.24468400321302
0 FENGYUN 1C DEB
1 32216U 99025CVN 13283.83659009  .00001974  00000-0  85786-3 0  2784
2 32216 099.5578 138.7076 0059423 195.3769 164.5964 14.24480119321650
0 FENGYUN 1C DEB
1 32216U 99025CVN 13284.39850424  .00001999  00000-0  86792-3 0  2796
2 32216 099.5613 139.3242 0060444 192.1873 167.8182 14.24483290321738
0 FENGYUN 1C DEB
1 32216U 99025CVN 13285.38185526  .00002042  00000-0  88551-3 0  2807
2 32216 099.5639 140.3971 0061351 188.3273 171.7163 14.24488640321878
0 FENGYUN 1C DEB
1 32216U 99025CVN 13287.84023428  .00002113  00000-0  91478-3 0  2814
2 32216 099.5653 143.0704 0062551 181.6505 178.5034 14.24501028322223
0 FENGYUN 1C DEB
1 32216U 99025CVN 13289.38547588  .00002198  00000-0  95001-3 0  2823
2 32216 099.5657 144.7502 0063249 177.2330 182.9783 14.24510786322448
0 FENGYUN 1C DEB
1 32216U 99025CVN 13290.36880535  .00002257  00000-0  97477-3 0  2831
2 32216 099.5661 145.8206 0063154 174.1766 186.0594 14.24517125322584
0 FENGYUN 1C DEB
1 32216U 99025CVN 13291.84379996  .00002326  00000-0  10060-2 0  2849
2 32216 099.5602 147.4191 0059620 171.5391 188.7010 14.24526007322792
0 FENGYUN 1C DEB
1 32216U 99025CVN 13293.81045208  .00002445  00000-0  10583-2 0  2857
2 32216 099.5521 149.5384 0055760 169.6645 190.6839 14.24539908323077
0 FENGYUN 1C DEB
1 32216U 99025CVN 13294.86398640  .00002492  00000-0  10777-2 0  2862
2 32216 099.5545 150.6881 0056787 165.8653 194.4329 14.24546320323224
